[Satellite]
VERSION=1.1
NAME=AISat 1
NICKNAME=AISat 1
TLE1=1 44104U 19018AC  20156.68756841  .00000606  00000-0  22005-4 0  9996
TLE2=2 44104  97.4643 226.2800 0056518 257.8693 101.6213 15.31038611 65850
STATUS=0
